[{"OBJECT_NAME":"OBJECT AU","OBJECT_ID":"2024-199AU","EPOCH":"2026-03-09T22:39:39.982464","MEAN_MOTION":15.41914594,"ECCENTRICITY":0.0013813,"INCLINATION":97.3147,"RA_OF_ASC_NODE":301.0833,"ARG_OF_PERICENTER":281.8371,"MEAN_ANOMALY":78.1327,"EPHEMERIS_TYPE":0,"CLASSIFICATION_TYPE":"U","NORAD_CAT_ID":61777,"ELEMENT_SET_NO":999,"REV_AT_EPOCH":11887,"BSTAR":0.00048321732,"MEAN_MOTION_DOT":0.00020549,"MEAN_MOTION_DDOT":0},{"OBJECT_NAME":"STARLINK-34379","OBJECT_ID":"2025-123M","EPOCH":"2026-03-09T16:18:28.587456","MEAN_MOTION":15.42688332,"ECCENTRICITY":0.00021053,"INCLINATION":70.0035,"RA_OF_ASC_NODE":164.9522,"ARG_OF_PERICENTER":264.6455,"MEAN_ANOMALY":95.4487,"EPHEMERIS_TYPE":0,"CLASSIFICATION_TYPE":"U","NORAD_CAT_ID":64302,"ELEMENT_SET_NO":999,"REV_AT_EPOCH":4235,"BSTAR":0.0010993501,"MEAN_MOTION_DOT":0.00048253,"MEAN_MOTION_DDOT":0}]
